{
  "type": "FeatureCollection",
  "features": [
    {
      "type": "Feature",
      "geometry": {
        "type": "LineString",
        "coordinates": [
          [
            13.473742,
            42.20577,
            1773
          ],
          [
            13.473635,
            42.205727,
            1773
          ],
          [
            13.473527,
            42.205778,
            1777
          ],
          [
            13.473419,
            42.20582,
            1779
          ],
          [
            13.473308,
            42.205873,
            1777
          ],
          [
            13.473193,
            42.205843,
            1780
          ],
          [
            13.473162,
            42.205755,
            1706
          ],
          [
            13.473147,
            42.205642,
            1706
          ],
          [
            13.473081,
            42.205564,
            1779
          ],
          [
            13.473034,
            42.205479,
            1706
          ],
          [
            13.473044,
            42.205387,
            1706
          ],
          [
            13.4731,
            42.2053,
            1706
          ],
          [
            13.473131,
            42.205212,
            1706
          ],
          [
            13.473121,
            42.205122,
            1706
          ],
          [
            13.473192,
            42.205042,
            1706
          ],
          [
            13.4732,
            42.204948,
            1706
          ],
          [
            13.4732,
            42.204855,
            1706
          ],
          [
            13.473201,
            42.204764,
            1706
          ],
          [
            13.473246,
            42.204679,
            1706
          ],
          [
            13.473326,
            42.204602,
            1706
          ],
          [
            13.473325,
            42.204509,
            1706
          ],
          [
            13.473401,
            42.204438,
            1706
          ],
          [
            13.473519,
            42.2044,
            1706
          ],
          [
            13.47362,
            42.204456,
            1802
          ],
          [
            13.473721,
            42.204507,
            1807
          ],
          [
            13.473839,
            42.204536,
            1811
          ],
          [
            13.47394,
            42.204591,
            1814
          ],
          [
            13.474057,
            42.204614,
            1706
          ],
          [
            13.474182,
            42.204624,
            1706
          ],
          [
            13.474253,
            42.20455,
            1829
          ],
          [
            13.474321,
            42.204474,
            1836
          ],
          [
            13.4743,
            42.204385,
            1706
          ],
          [
            13.474224,
            42.204311,
            1839
          ],
          [
            13.474345,
            42.204307,
            1706
          ],
          [
            13.474471,
            42.204308,
            1841
          ],
          [
            13.474519,
            42.204223,
            1706
          ],
          [
            13.474495,
            42.204133,
            1706
          ],
          [
            13.474478,
            42.204041,
            1706
          ],
          [
            13.474575,
            42.203986,
            1706
          ],
          [
            13.474652,
            42.203916,
            1706
          ],
          [
            13.474774,
            42.203905,
            1860
          ],
          [
            13.474821,
            42.203822,
            1592
          ],
          [
            13.474829,
            42.203728,
            1706
          ],
          [
            13.474829,
            42.203632,
            1706
          ],
          [
            13.474832,
            42.203541,
            1876
          ],
          [
            13.474796,
            42.203451,
            1877
          ],
          [
            13.474884,
            42.203522,
            1875
          ],
          [
            13.474881,
            42.203617,
            1875
          ],
          [
            13.474896,
            42.203707,
            1873
          ],
          [
            13.474863,
            42.203794,
            1868
          ],
          [
            13.474982,
            42.203816,
            1866
          ],
          [
            13.475043,
            42.203729,
            1871
          ],
          [
            13.475162,
            42.203701,
            1872
          ],
          [
            13.475284,
            42.203702,
            1873
          ],
          [
            13.475403,
            42.203676,
            1878
          ],
          [
            13.475543,
            42.203678,
            1882
          ],
          [
            13.475657,
            42.20364,
            1886
          ],
          [
            13.47576,
            42.203585,
            1887
          ],
          [
            13.475861,
            42.20353,
            1894
          ],
          [
            13.475866,
            42.20344,
            1900
          ],
          [
            13.475786,
            42.20337,
            1706
          ],
          [
            13.475661,
            42.203378,
            1592
          ],
          [
            13.475586,
            42.203293,
            1706
          ],
          [
            13.475563,
            42.203198,
            1706
          ],
          [
            13.475513,
            42.203116,
            1706
          ],
          [
            13.475582,
            42.203041,
            1706
          ],
          [
            13.4757,
            42.203008,
            1706
          ],
          [
            13.47582,
            42.202995,
            1706
          ],
          [
            13.475916,
            42.202936,
            1925
          ],
          [
            13.476035,
            42.202914,
            1924
          ],
          [
            13.476088,
            42.202832,
            1706
          ],
          [
            13.476068,
            42.202739,
            1938
          ],
          [
            13.476073,
            42.202646,
            1941
          ],
          [
            13.476063,
            42.202552,
            1943
          ],
          [
            13.476062,
            42.202456,
            1943
          ],
          [
            13.476086,
            42.202366,
            1948
          ],
          [
            13.476065,
            42.202276,
            1953
          ],
          [
            13.476066,
            42.202185,
            1955
          ],
          [
            13.476082,
            42.202096,
            1706
          ],
          [
            13.476119,
            42.202009,
            1706
          ],
          [
            13.47617,
            42.201925,
            1706
          ],
          [
            13.476291,
            42.201904,
            1706
          ],
          [
            13.476404,
            42.201939,
            1969
          ],
          [
            13.476526,
            42.201927,
            1973
          ],
          [
            13.476642,
            42.201897,
            1976
          ],
          [
            13.47676,
            42.201865,
            1979
          ],
          [
            13.476881,
            42.201867,
            1979
          ],
          [
            13.477021,
            42.201881,
            1980
          ],
          [
            13.477145,
            42.201876,
            1983
          ],
          [
            13.47727,
            42.201877,
            1984
          ],
          [
            13.477392,
            42.201863,
            1985
          ],
          [
            13.477504,
            42.201829,
            1986
          ],
          [
            13.477599,
            42.201767,
            1989
          ],
          [
            13.477646,
            42.201681,
            1994
          ],
          [
            13.477708,
            42.2016,
            1997
          ],
          [
            13.477773,
            42.201521,
            1997
          ],
          [
            13.477826,
            42.201436,
            1998
          ],
          [
            13.477898,
            42.201362,
            1998
          ],
          [
            13.47799,
            42.20129,
            1995
          ],
          [
            13.478076,
            42.201222,
            1995
          ],
          [
            13.478202,
            42.201193,
            1995
          ],
          [
            13.478296,
            42.201133,
            1995
          ],
          [
            13.478373,
            42.201058,
            1994
          ],
          [
            13.478423,
            42.200973,
            1994
          ],
          [
            13.478503,
            42.200904,
            1994
          ],
          [
            13.478628,
            42.200834,
            1994
          ],
          [
            13.478744,
            42.200791,
            1994
          ],
          [
            13.478837,
            42.200731,
            1995
          ],
          [
            13.478923,
            42.20066,
            1996
          ],
          [
            13.479014,
            42.200595,
            1998
          ],
          [
            13.47911,
            42.200531,
            1999
          ],
          [
            13.479185,
            42.200456,
            2001
          ],
          [
            13.479259,
            42.200384,
            2003
          ],
          [
            13.479333,
            42.200312,
            2004
          ],
          [
            13.479401,
            42.200235,
            2005
          ],
          [
            13.479461,
            42.200152,
            2006
          ],
          [
            13.479539,
            42.20008,
            2006
          ],
          [
            13.479615,
            42.200008,
            2008
          ],
          [
            13.479682,
            42.199933,
            2009
          ],
          [
            13.479757,
            42.199855,
            2011
          ],
          [
            13.479841,
            42.199786,
            2013
          ],
          [
            13.479933,
            42.199727,
            2014
          ],
          [
            13.480023,
            42.199661,
            2016
          ],
          [
            13.480095,
            42.199586,
            2020
          ],
          [
            13.480198,
            42.199537,
            2023
          ],
          [
            13.480289,
            42.199462,
            2027
          ],
          [
            13.480338,
            42.199379,
            2029
          ],
          [
            13.480412,
            42.199305,
            2031
          ],
          [
            13.480482,
            42.199226,
            2034
          ],
          [
            13.480532,
            42.19914,
            2035
          ],
          [
            13.480589,
            42.19906,
            2037
          ],
          [
            13.480666,
            42.198986,
            2038
          ],
          [
            13.480753,
            42.198919,
            2040
          ],
          [
            13.480823,
            42.198842,
            2043
          ],
          [
            13.480906,
            42.198772,
            2047
          ],
          [
            13.480988,
            42.198704,
            2050
          ],
          [
            13.481042,
            42.198617,
            2052
          ],
          [
            13.481138,
            42.198557,
            2053
          ],
          [
            13.481183,
            42.198473,
            2056
          ],
          [
            13.48124,
            42.198386,
            2058
          ],
          [
            13.481305,
            42.198308,
            2062
          ],
          [
            13.48138,
            42.198237,
            2065
          ],
          [
            13.481431,
            42.198153,
            2068
          ],
          [
            13.481523,
            42.198093,
            2071
          ],
          [
            13.481566,
            42.198004,
            2072
          ],
          [
            13.481593,
            42.197916,
            2074
          ],
          [
            13.481648,
            42.197836,
            2075
          ],
          [
            13.481691,
            42.197748,
            2077
          ],
          [
            13.481749,
            42.197665,
            2079
          ],
          [
            13.481809,
            42.197587,
            2081
          ],
          [
            13.481864,
            42.197505,
            2084
          ],
          [
            13.48198,
            42.197465,
            2082
          ],
          [
            13.482032,
            42.197382,
            2085
          ],
          [
            13.482067,
            42.197295,
            2088
          ],
          [
            13.482133,
            42.197218,
            2091
          ],
          [
            13.482216,
            42.197151,
            2094
          ],
          [
            13.48233,
            42.197101,
            2096
          ],
          [
            13.482458,
            42.197108,
            2097
          ],
          [
            13.482568,
            42.197149,
            2098
          ],
          [
            13.482673,
            42.197195,
            2100
          ],
          [
            13.482793,
            42.197216,
            2102
          ],
          [
            13.482906,
            42.19725,
            2104
          ],
          [
            13.483002,
            42.197308,
            2105
          ],
          [
            13.483098,
            42.197366,
            2106
          ],
          [
            13.483165,
            42.19744,
            2108
          ],
          [
            13.483252,
            42.19751,
            2109
          ],
          [
            13.483337,
            42.197576,
            2107
          ],
          [
            13.483211,
            42.197587,
            1410
          ],
          [
            13.483119,
            42.19765,
            1410
          ],
          [
            13.48303,
            42.197717,
            1410
          ],
          [
            13.482962,
            42.197796,
            1410
          ],
          [
            13.482921,
            42.197881,
            1410
          ],
          [
            13.482866,
            42.197967,
            1410
          ],
          [
            13.482816,
            42.198051,
            1410
          ],
          [
            13.482773,
            42.198136,
            2109
          ],
          [
            13.482773,
            42.198229,
            2110
          ],
          [
            13.482746,
            42.198319,
            2112
          ],
          [
            13.482694,
            42.198316,
            2109
          ]
        ]
      },
      "properties": {
        "name": "6 settembre 2026, 10:32",
        "stroke": "#F06432",
        "time": "2026-09-06T07:22:02Z",
        "coordTimes": [
          "2026-09-06T07:22:02Z",
          "2026-09-06T07:22:19Z",
          "2026-09-06T07:22:33Z",
          "2026-09-06T07:22:43Z",
          "2026-09-06T07:23:00Z",
          "2026-09-06T07:23:09Z",
          "2026-09-06T07:23:40Z",
          "2026-09-06T07:23:57Z",
          "2026-09-06T07:24:05Z",
          "2026-09-06T07:24:14Z",
          "2026-09-06T07:24:35Z",
          "2026-09-06T07:24:46Z",
          "2026-09-06T07:24:58Z",
          "2026-09-06T07:25:08Z",
          "2026-09-06T07:25:21Z",
          "2026-09-06T07:25:36Z",
          "2026-09-06T07:25:51Z",
          "2026-09-06T07:26:05Z",
          "2026-09-06T07:26:16Z",
          "2026-09-06T07:26:33Z",
          "2026-09-06T07:26:47Z",
          "2026-09-06T07:27:11Z",
          "2026-09-06T07:27:45Z",
          "2026-09-06T07:29:11Z",
          "2026-09-06T07:30:22Z",
          "2026-09-06T07:30:49Z",
          "2026-09-06T07:31:13Z",
          "2026-09-06T07:31:47Z",
          "2026-09-06T07:32:47Z",
          "2026-09-06T07:34:03Z",
          "2026-09-06T07:34:38Z",
          "2026-09-06T07:34:50Z",
          "2026-09-06T07:35:03Z",
          "2026-09-06T07:37:23Z",
          "2026-09-06T07:37:38Z",
          "2026-09-06T07:38:13Z",
          "2026-09-06T07:38:28Z",
          "2026-09-06T07:39:02Z",
          "2026-09-06T07:39:20Z",
          "2026-09-06T07:39:43Z",
          "2026-09-06T07:40:19Z",
          "2026-09-06T07:40:38Z",
          "2026-09-06T07:40:58Z",
          "2026-09-06T07:41:18Z",
          "2026-09-06T07:41:35Z",
          "2026-09-06T07:41:48Z",
          "2026-09-06T07:43:47Z",
          "2026-09-06T07:44:01Z",
          "2026-09-06T07:44:18Z",
          "2026-09-06T07:44:37Z",
          "2026-09-06T07:45:14Z",
          "2026-09-06T07:45:33Z",
          "2026-09-06T07:45:58Z",
          "2026-09-06T07:46:17Z",
          "2026-09-06T07:46:37Z",
          "2026-09-06T07:47:00Z",
          "2026-09-06T07:47:30Z",
          "2026-09-06T07:48:03Z",
          "2026-09-06T07:48:50Z",
          "2026-09-06T07:49:33Z",
          "2026-09-06T07:50:26Z",
          "2026-09-06T07:50:37Z",
          "2026-09-06T07:50:50Z",
          "2026-09-06T07:51:19Z",
          "2026-09-06T07:52:08Z",
          "2026-09-06T07:52:52Z",
          "2026-09-06T07:53:49Z",
          "2026-09-06T07:54:15Z",
          "2026-09-06T07:55:02Z",
          "2026-09-06T07:55:28Z",
          "2026-09-06T07:56:12Z",
          "2026-09-06T07:56:38Z",
          "2026-09-06T07:56:55Z",
          "2026-09-06T07:57:14Z",
          "2026-09-06T07:57:31Z",
          "2026-09-06T07:57:58Z",
          "2026-09-06T07:58:20Z",
          "2026-09-06T07:58:37Z",
          "2026-09-06T07:58:54Z",
          "2026-09-06T07:59:13Z",
          "2026-09-06T07:59:32Z",
          "2026-09-06T07:59:56Z",
          "2026-09-06T08:00:29Z",
          "2026-09-06T08:01:05Z",
          "2026-09-06T08:01:19Z",
          "2026-09-06T08:01:34Z",
          "2026-09-06T08:01:50Z",
          "2026-09-06T08:02:08Z",
          "2026-09-06T08:02:24Z",
          "2026-09-06T08:02:38Z",
          "2026-09-06T08:02:52Z",
          "2026-09-06T08:03:07Z",
          "2026-09-06T08:03:30Z",
          "2026-09-06T08:03:48Z",
          "2026-09-06T08:04:04Z",
          "2026-09-06T08:04:14Z",
          "2026-09-06T08:04:25Z",
          "2026-09-06T08:04:36Z",
          "2026-09-06T08:04:47Z",
          "2026-09-06T08:07:27Z",
          "2026-09-06T08:09:23Z",
          "2026-09-06T08:09:31Z",
          "2026-09-06T08:09:41Z",
          "2026-09-06T08:09:49Z",
          "2026-09-06T08:09:58Z",
          "2026-09-06T08:10:15Z",
          "2026-09-06T08:10:24Z",
          "2026-09-06T08:10:35Z",
          "2026-09-06T08:10:46Z",
          "2026-09-06T08:10:59Z",
          "2026-09-06T08:11:12Z",
          "2026-09-06T08:11:24Z",
          "2026-09-06T08:11:37Z",
          "2026-09-06T08:11:49Z",
          "2026-09-06T08:12:02Z",
          "2026-09-06T08:12:17Z",
          "2026-09-06T08:12:32Z",
          "2026-09-06T08:12:48Z",
          "2026-09-06T08:13:02Z",
          "2026-09-06T08:13:17Z",
          "2026-09-06T08:13:32Z",
          "2026-09-06T08:13:46Z",
          "2026-09-06T08:14:02Z",
          "2026-09-06T08:14:19Z",
          "2026-09-06T08:14:32Z",
          "2026-09-06T08:14:50Z",
          "2026-09-06T08:15:07Z",
          "2026-09-06T08:15:21Z",
          "2026-09-06T08:15:38Z",
          "2026-09-06T08:15:52Z",
          "2026-09-06T08:16:06Z",
          "2026-09-06T08:16:23Z",
          "2026-09-06T08:16:38Z",
          "2026-09-06T08:16:59Z",
          "2026-09-06T08:17:16Z",
          "2026-09-06T08:17:40Z",
          "2026-09-06T08:17:55Z",
          "2026-09-06T08:18:09Z",
          "2026-09-06T08:18:25Z",
          "2026-09-06T08:18:41Z",
          "2026-09-06T08:19:23Z",
          "2026-09-06T08:20:39Z",
          "2026-09-06T08:20:56Z",
          "2026-09-06T08:21:12Z",
          "2026-09-06T08:21:25Z",
          "2026-09-06T08:21:38Z",
          "2026-09-06T08:21:52Z",
          "2026-09-06T08:22:07Z",
          "2026-09-06T08:22:24Z",
          "2026-09-06T08:22:39Z",
          "2026-09-06T08:22:52Z",
          "2026-09-06T08:23:08Z",
          "2026-09-06T08:23:20Z",
          "2026-09-06T08:23:35Z",
          "2026-09-06T08:23:49Z",
          "2026-09-06T08:24:04Z",
          "2026-09-06T08:24:20Z",
          "2026-09-06T08:24:35Z",
          "2026-09-06T08:24:55Z",
          "2026-09-06T08:25:08Z",
          "2026-09-06T08:25:23Z",
          "2026-09-06T08:25:35Z",
          "2026-09-06T08:25:47Z",
          "2026-09-06T08:26:01Z",
          "2026-09-06T08:26:16Z",
          "2026-09-06T08:26:28Z",
          "2026-09-06T08:26:42Z",
          "2026-09-06T08:28:49Z",
          "2026-09-06T08:29:00Z",
          "2026-09-06T08:29:11Z",
          "2026-09-06T08:29:22Z",
          "2026-09-06T08:29:31Z",
          "2026-09-06T08:29:43Z",
          "2026-09-06T08:29:54Z",
          "2026-09-06T08:30:03Z",
          "2026-09-06T08:30:13Z",
          "2026-09-06T08:30:25Z",
          "2026-09-06T08:32:53Z"
        ]
      }
    }
  ]
}